SKY MUSTER 1 (NBN1A)    
1 40940U 15054A   22219.55917755 -.00000278  00000+0  00000+0 0  9998
2 40940   0.0066 107.3879 0001915  23.1983 167.0305  1.00271197 25128
ARSAT 2                 
1 40941U 15054B   22219.57546567 -.00000224  00000+0  00000+0 0  9991
2 40941   0.0579 278.5559 0002066 202.1133 321.5641  1.00272494 25185
MORELOS 3               
1 40946U 15056A   22219.71245747 -.00000038  00000+0  00000+0 0  9993
2 40946   3.6542 335.6704 0003336 185.8554 298.0414  1.00272094 25149
LINGQIAO VIDEO A        
1 40959U 15057B   22219.39365421  .00000160  00000+0  31885-4 0  9999
2 40959  97.7480 264.1776 0018446 152.8384 207.3793 14.73598734367537
LINGQIAO VIDEO B        
1 40960U 15057C   22219.81024430  .00000129  00000+0  26985-4 0  9990
2 40960  97.7512 265.4280 0018710 152.0704 208.1499 14.73708439367628
JILIN 1                 
1 40961U 15057D   22219.80854312  .00000205  00000+0  38230-4 0  9991
2 40961  97.7568 267.2711 0018826 150.2715 209.9556 14.74139727367698
AEROCUBE 5C             
1 40965U 15058B   22219.81995156  .00001246  00000+0  15536-3 0  9998
2 40965  64.7775 295.4699 0186396 183.7072 176.2666 14.75764148156549
AEROCUBE 7              
1 40966U 15058C   22219.59554282  .00001440  00000+0  17491-3 0  9993
2 40966  64.7774 293.2110 0184365 183.4330 176.5526 14.76351085156531
APSTAR 9                
1 40982U 15059A   22218.97418091 -.00000263  00000+0  00000+0 0  9997
2 40982   0.0481 252.1449 0002324 267.5704 288.4814  1.00271085 25014
TURKSAT 4B              
1 40984U 15060A   22219.45806125  .00000116  00000+0  00000+0 0  9990
2 40984   0.0312 268.3879 0002277 220.8486  41.5819  1.00270255 24976
TIANHUI 1-03            
1 40988U 15061A   22219.79988853  .00002204  00000+0  95586-4 0  9999
2 40988  97.4022 339.5907 0003357 238.9131 274.3803 15.23400653377155
NAVSTAR 75 (USA 265)    
1 41019U 15062A   22218.79103234 -.00000028  00000+0  00000+0 0  9992
2 41019  55.8402  85.7904 0078981 217.5501 141.9680  2.00562603 49543
CHINASAT 2C (ZX 2C)     
1 41021U 15063A   22218.98938308 -.00000321  00000+0  00000+0 0  9991
2 41021   0.0293 145.1360 0001329  30.0823 239.8903  1.00270603 24879
YAOGAN-28               
1 41026U 15064A   22219.82231525  .00002671  00000+0  11495-3 0  9991
2 41026  97.5612   2.9136 0006163 117.9452  19.5852 15.23504769376054
GSAT-15                 
1 41028U 15065A   22219.53241816 -.00000258  00000+0  00000+0 0  9992
2 41028   0.0252 109.6174 0003811 356.3926 135.1769  1.00272308 24675
BADR-7 (ARABSAT-6B)     
1 41029U 15065B   22219.30980328  .00000146  00000+0  00000+0 0  9991
2 41029   0.0522 251.8942 0005392 316.8684 244.5502  1.00269546 24622
COSMOS 2510             
1 41032U 15066A   22218.80882524 -.00000913  00000+0  00000+0 0  9992
2 41032  62.8552 163.8048 6767977 270.4452  18.7222  2.00896955 49170
LAOSAT 1                
1 41034U 15067A   22219.76076646 -.00000343  00000+0  00000+0 0  9998
2 41034   0.0109 131.1226 0002101 316.7797 270.7268  1.00273434 24714
TELSTAR 12V             
1 41036U 15068A   22219.44077282 -.00000118  00000+0  00000+0 0  9993
2 41036   0.0141  87.4722 0002433  42.3888 329.7430  1.00271199 24494
YAOGAN-29               
1 41038U 15069A   22219.83486797  .00000105  00000+0  20568-4 0  9995
2 41038  98.0573 220.2673 0000742  39.4381 320.6890 14.80897255361897
CHINASAT 1C (ZX 1C)     
1 41103U 15073A   22219.53607476 -.00000153  00000+0  00000+0 0  9997
2 41103   3.5166  84.7282 0001611  50.3549  95.3094  1.00271686 24522
ELEKTRO-L 2             
1 41105U 15074A   22219.37345953 -.00000116  00000+0  00000+0 0  9990
2 41105   3.1126  87.5799 0002194  75.4060 272.8705  1.00273055 24379
COSMOS 2513             
1 41121U 15075A   22219.75108721 -.00000138  00000+0  00000+0 0  9995
2 41121   0.0480 114.3449 0003231   8.0773 184.4537  1.00269309 24461
VELOX-CI                
1 41166U 15077A   22219.24574889  .00002208  00000+0  86987-4 0  9994
2 41166  14.9819 178.3492 0010687  36.4264 323.6783 15.11840649367000
KENT RIDGE 1            
1 41167U 15077B   22219.65734954  .00001288  00000+0  37067-4 0  9993
2 41167  14.9789 195.7256 0011349   1.7194 346.0489 15.10167371366993
ATHENOXAT 1             
1 41168U 15077C   22219.81751591  .00007424  00000+0  28266-3 0  9996
2 41168  14.9882  69.4019 0008296 244.8520 210.5535 15.22014558368149
TELEOS 1                
1 41169U 15077D   22219.48343647  .00002497  00000+0  98879-4 0  9992
2 41169  14.9805 164.8517 0009716  58.6130 301.5206 15.13268370367265
GALASSIA                
1 41170U 15077E   22219.22435201  .00006786  00000+0  26238-3 0  9998
2 41170  14.9886  65.0306 0010560 263.7076  96.2043 15.21139967367963
VELOX-II                
1 41171U 15077F   22218.97913860  .00005351  00000+0  23221-3 0  9998
2 41171  14.9902 142.7860 0007561  93.0977 267.0209 15.16342268367294
DAMPE                   
1 41173U 15078A   22219.80363102  .00000410  00000+0  19541-4 0  9994
2 41173  97.3797 209.7966 0014345  25.8433  73.1743 15.24510827369403
GSAT0209 (GALILEO 12)   
1 41174U 15079A   22217.72027254  .00000008  00000+0  00000+0 0  9998
2 41174  55.1669 140.0491 0004218 316.1300  43.8406  1.70473939 40719
GSAT0208 (GALILEO 11)   
1 41175U 15079B   22219.11289354 -.00000004  00000+0  00000+0 0  9992
2 41175  55.1655 140.0093 0003645 315.5862  44.3830  1.70473931 41150
ORBCOMM FM114           
1 41179U 15081A   22219.26454282  .00000268  00000+0  99593-4 0  9990
2 41179  47.0026 168.0255 0002936 254.2678 105.7883 14.55136870352152
ORBCOMM FM110           
1 41182U 15081D   22219.31048754  .00000160  00000+0  74722-4 0  9991
2 41182  47.0012 167.2858 0000975   8.6985 351.3916 14.55164253352033
ORBCOMM FM118           
1 41183U 15081E   22219.28752111  .00000190  00000+0  81616-4 0  9990
2 41183  47.0033 167.5749 0001070  22.7428 337.3503 14.55135513352139
ORBCOMM FM112           
1 41184U 15081F   22219.33997754  .00000177  00000+0  78699-4 0  9993
2 41184  46.9997  76.1910 0002113 297.0439  63.0229 14.55139365353363
ORBCOMM FM113           
1 41185U 15081G   22219.79784888  .00000215  00000+0  87482-4 0  9999
2 41185  47.0019  74.1917 0001918 311.9259  48.1462 14.55146839353495
ORBCOMM FM115           
1 41186U 15081H   22219.74684700  .00000151  00000+0  67990-4 0  9998
2 41186  47.0005 310.7398 0001228 280.3936  79.6811 14.58995421355107
ORBCOMM FM108           
1 41187U 15081J   22219.41210128  .00000143  00000+0  70914-4 0  9993
2 41187  47.0065 347.0372 0002614 209.1640 150.9099 14.55137651354504
ORBCOMM FM117           
1 41188U 15081K   22219.51451952  .00000182  00000+0  79809-4 0  9992
2 41188  47.0027 345.6609 0003345 222.6267 137.4358 14.55139491354565
ORBCOMM FM116           
1 41189U 15081L   22219.29413038  .00000175  00000+0  78268-4 0  9991
2 41189  47.0023  76.4211 0002227 302.9134  57.1536 14.55145399353348
EXPRESS-AMU1            
1 41191U 15082A   22219.24008280  .00000157  00000+0  00000+0 0  9993
2 41191   0.0107  77.0037 0002833  58.7169 302.5444  1.00268492 24125
GAOFEN 4                
1 41194U 15083A   22219.47827302 -.00000334  00000+0  00000+0 0  9994
2 41194   0.0905 268.0991 0004534 264.9326  60.7987  1.00267920 24389
BELINTERSAT-1           
1 41238U 16001A   22219.34979986  .00000108  00000+0  00000+0 0  9994
2 41238   0.0245 111.4021 0001056   5.7973  16.0861  1.00273953 24114
JASON-3                 
1 41240U 16002A   22219.61592851 -.00000043  00000+0  77132-4 0  9994
2 41240  66.0400 182.8056 0008330 267.5674  92.4388 12.80930227306603
IRNSS-1E                
1 41241U 16003A   22219.03992997 -.00000316  00000+0  00000+0 0  9995
2 41241  30.0871  83.8279 0019235 178.1133 179.8704  1.00271486 23936
EUTELSAT 9B             
1 41310U 16005A   22219.41438292  .00000063  00000+0  00000+0 0  9997
2 41310   0.0393  69.9759 0002521 125.0338 279.0548  1.00272169 23988
NAVSTAR 76 (USA 266)    
1 41328U 16007A   22218.88032439  .00000000  00000+0  00000+0 0  9992
2 41328  54.9178 145.4756 0062330 230.5333 128.9129  2.00568404 47551
COSMOS 2514 [GLONASS-M] 
1 41330U 16008A   22219.15603943 -.00000053  00000+0  00000+0 0  9990
2 41330  65.5783   0.9802 0010376 200.0078 159.9603  2.13102589 50571
KMS 4                   
1 41332U 16009A   22219.44694225  .00013617  00000+0  29527-3 0  9996
2 41332  97.2415 294.5943 0018286 136.8552 223.4133 15.44343168363700
SENTINEL-3A             
1 41335U 16011A   22219.74626457  .00000032  00000+0  31246-4 0  9996
2 41335  98.6199 286.2956 0001156  98.7665 261.3647 14.26738751337086
HORYU-4                 
1 41340U 16012D   22219.49375182  .00002048  00000+0  13991-3 0  9996
2 41340  31.0052  33.0985 0013365 348.2252  11.8071 15.03559382355414
SES-9                   
1 41380U 16013A   22219.47827302 -.00000344  00000+0  00000+0 0  9996
2 41380   0.0553 272.1448 0002249 202.9433 121.3607  1.00269821 23306
EUTELSAT 65 WEST A      
1 41382U 16014A   22219.43512753 -.00000275  00000+0  00000+0 0  9999
2 41382   0.0506 358.3813 0002160 130.2947 278.7025  1.00272475 23405
IRNSS-1F                
1 41384U 16015A   22219.80188250  .00000157  00000+0  00000+0 0  9992
2 41384   2.2479 152.9337 0017574 187.2001 297.2043  1.00274860 23526
RESURS P3               
1 41386U 16016A   22219.80432112  .00002084  00000+0  63013-4 0  9993
2 41386  97.1991 301.5716 0003334 176.4558 299.0778 15.35313529358186
COSMOS 2515             
1 41394U 16020A   22219.84854541  .00000598  00000+0  53083-4 0  9999
2 41394  97.8837 177.1629 0036914  24.4192 335.8780 14.99599462348640
BEIDOU IGSO-6           
1 41434U 16021A   22219.50188060 -.00000143  00000+0  00000+0 0  9997
2 41434  58.1734  52.3047 0044045 215.5922 324.9295  1.00273268 23345
E-ST@R-II               
1 41459U 16025D   22219.71142120  .00008100  00000+0  34216-3 0  9998
2 41459  98.1914  28.7085 0143840  95.4582 266.3074 15.14543348345255
